[
    {
        "Altitude(m)": 704127.3365668153,
        "Argument of Periapsis(deg)": 0.005695060593313534,
        "Eccentricity": 0.0,
        "Inclination(deg)": 45.0,
        "Latitude(deg)": 29.12169475277652,
        "Longitude(deg)": -169.01991477085696,
        "Mean Anomaly(deg)": 136.67570832374037,
        "RAAN(deg)": 144.9946240292709,
        "Satellite Name": "Constellation 1 646",
        "Satellite Number": 646,
        "Semi-Major Axis(m)": 7083131.272910544,
        "Time(s)": 95
    },
    {
        "Altitude(m)": 704121.7259468862,
        "Argument of Periapsis(deg)": 0.00575500859955894,
        "Eccentricity": 0.0,
        "Inclination(deg)": 45.0,
        "Latitude(deg)": 29.085777305762672,
        "Longitude(deg)": -168.96795457830746,
        "Mean Anomaly(deg)": 136.73640946399036,
        "RAAN(deg)": 144.99456744010536,
        "Satellite Name": "Constellation 1 646",
        "Satellite Number": 646,
        "Semi-Major Axis(m)": 7083131.272910544,
        "Time(s)": 96
    },
    {
        "Altitude(m)": 704116.1206471387,
        "Argument of Periapsis(deg)": 0.005814956605804345,
        "Eccentricity": 0.0,
        "Inclination(deg)": 45.0,
        "Latitude(deg)": 29.049836263229576,
        "Longitude(deg)": -168.916033099847,
        "Mean Anomaly(deg)": 136.79711060424017,
        "RAAN(deg)": 144.99451085093978,
        "Satellite Name": "Constellation 1 646",
        "Satellite Number": 646,
        "Semi-Major Axis(m)": 7083131.272910544,
        "Time(s)": 97
    },
    {
        "Altitude(m)": 704110.520706717,
        "Argument of Periapsis(deg)": 0.00587490461204975,
        "Eccentricity": 0.0,
        "Inclination(deg)": 45.0,
        "Latitude(deg)": 29.01387167568714,
        "Longitude(deg)": -168.86415044463757,
        "Mean Anomaly(deg)": 136.8578117444901,
        "RAAN(deg)": 144.9944542617742,
        "Satellite Name": "Constellation 1 646",
        "Satellite Number": 646,
        "Semi-Major Axis(m)": 7083131.272910544,
        "Time(s)": 98
    },
    {
        "Altitude(m)": 704104.9261647405,
        "Argument of Periapsis(deg)": 0.005934852618295156,
        "Eccentricity": 0.0,
        "Inclination(deg)": 45.0,
        "Latitude(deg)": 28.97788359357353,
        "Longitude(deg)": -168.81230655370277,
        "Mean Anomaly(deg)": 136.91851288473998,
        "RAAN(deg)": 144.99439767260864,
        "Satellite Name": "Constellation 1 646",
        "Satellite Number": 646,
        "Semi-Major Axis(m)": 7083131.272910544,
        "Time(s)": 99
    },
    {
        "Altitude(m)": 704099.3370603208,
        "Argument of Periapsis(deg)": 0.005994800624540561,
        "Eccentricity": 0.0,
        "Inclination(deg)": 45.0,
        "Latitude(deg)": 28.94187206725513,
        "Longitude(deg)": -168.76050136802564,
        "Mean Anomaly(deg)": 136.97921402498991,
        "RAAN(deg)": 144.99434108344306,
        "Satellite Name": "Constellation 1 646",
        "Satellite Number": 646,
        "Semi-Major Axis(m)": 7083131.272910544,
        "Time(s)": 100
    },
    {
        "Altitude(m)": 704093.7534325648,
        "Argument of Periapsis(deg)": 0.006054748630785968,
        "Eccentricity": 0.0,
        "Inclination(deg)": 45.0,
        "Latitude(deg)": 28.905837147026688,
        "Longitude(deg)": -168.70873482854827,
        "Mean Anomaly(deg)": 137.03991516523985,
        "RAAN(deg)": 144.9942844942775,
        "Satellite Name": "Constellation 1 646",
        "Satellite Number": 646,
        "Semi-Major Axis(m)": 7083131.272910544,
        "Time(s)": 101
    },
    {
        "Altitude(m)": 704088.1753205624,
        "Argument of Periapsis(deg)": 0.006114696637031373,
        "Eccentricity": 0.0,
        "Inclination(deg)": 45.0,
        "Latitude(deg)": 28.86977888311155,
        "Longitude(deg)": -168.6570068761737,
        "Mean Anomaly(deg)": 137.10061630548967,
        "RAAN(deg)": 144.99422790511193,
        "Satellite Name": "Constellation 1 646",
        "Satellite Number": 646,
        "Semi-Major Axis(m)": 7083131.272910544,
        "Time(s)": 102
    },
    {
        "Altitude(m)": 704082.6027633972,
        "Argument of Periapsis(deg)": 0.006174644643276778,
        "Eccentricity": 0.0,
        "Inclination(deg)": 45.0,
        "Latitude(deg)": 28.83369732566136,
        "Longitude(deg)": -168.60531745176527,
        "Mean Anomaly(deg)": 137.16131744573966,
        "RAAN(deg)": 144.99417131594635,
        "Satellite Name": "Constellation 1 646",
        "Satellite Number": 646,
        "Semi-Major Axis(m)": 7083131.272910544,
        "Time(s)": 103
    },
    {
        "Altitude(m)": 704077.0358001369,
        "Argument of Periapsis(deg)": 0.006234592649522184,
        "Eccentricity": 0.0,
        "Inclination(deg)": 45.0,
        "Latitude(deg)": 28.797592524756947,
        "Longitude(deg)": -168.55366666424536,
        "Mean Anomaly(deg)": 137.2220185859895,
        "RAAN(deg)": 144.9941147267808,
        "Satellite Name": "Constellation 1 646",
        "Satellite Number": 646,
        "Semi-Major Axis(m)": 7083131.272910544,
        "Time(s)": 104
    },
    {
        "Altitude(m)": 704071.4744698477,
        "Argument of Periapsis(deg)": 0.00629454065576759,
        "Eccentricity": 0.0,
        "Inclination(deg)": 45.0,
        "Latitude(deg)": 28.761464530406492,
        "Longitude(deg)": -168.5020541182067,
        "Mean Anomaly(deg)": 137.2827197262394,
        "RAAN(deg)": 144.99405813761524,
        "Satellite Name": "Constellation 1 646",
        "Satellite Number": 646,
        "Semi-Major Axis(m)": 7083131.272910544,
        "Time(s)": 105
    },
    {
        "Altitude(m)": 704065.9188115721,
        "Argument of Periapsis(deg)": 0.006354488662012995,
        "Eccentricity": 0.0,
        "Inclination(deg)": 45.0,
        "Latitude(deg)": 28.725313392548088,
        "Longitude(deg)": -168.45047992249619,
        "Mean Anomaly(deg)": 137.34342086648925,
        "RAAN(deg)": 144.99400154844963,
        "Satellite Name": "Constellation 1 646",
        "Satellite Number": 646,
        "Semi-Major Axis(m)": 7083131.272910544,
        "Time(s)": 106
    },
    {
        "Altitude(m)": 704060.3688643506,
        "Argument of Periapsis(deg)": 0.006414436668258401,
        "Eccentricity": 0.0,
        "Inclination(deg)": 45.0,
        "Latitude(deg)": 28.689139161047883,
        "Longitude(deg)": -168.3989440178263,
        "Mean Anomaly(deg)": 137.40412200673921,
        "RAAN(deg)": 144.99394495928408,
        "Satellite Name": "Constellation 1 646",
        "Satellite Number": 646,
        "Semi-Major Axis(m)": 7083131.272910544,
        "Time(s)": 107
    },
    {
        "Altitude(m)": 704054.824667208,
        "Argument of Periapsis(deg)": 0.0064743846745038075,
        "Eccentricity": 0.0,
        "Inclination(deg)": 45.0,
        "Latitude(deg)": 28.652941885701257,
        "Longitude(deg)": -168.3474463448737,
        "Mean Anomaly(deg)": 137.46482314698906,
        "RAAN(deg)": 144.9938883701185,
        "Satellite Name": "Constellation 1 646",
        "Satellite Number": 646,
        "Semi-Major Axis(m)": 7083131.272910544,
        "Time(s)": 108
    },
    {
        "Altitude(m)": 704049.2862591605,
        "Argument of Periapsis(deg)": 0.0065343326807492125,
        "Eccentricity": 0.0,
        "Inclination(deg)": 45.0,
        "Latitude(deg)": 28.616721616232073,
        "Longitude(deg)": -168.2959868442791,
        "Mean Anomaly(deg)": 137.525524287239,
        "RAAN(deg)": 144.99383178095295,
        "Satellite Name": "Constellation 1 646",
        "Satellite Number": 646,
        "Semi-Major Axis(m)": 7083131.272910544,
        "Time(s)": 109
    },
    {
        "Altitude(m)": 704043.7536792068,
        "Argument of Periapsis(deg)": 0.0065942806869946176,
        "Eccentricity": 0.0,
        "Inclination(deg)": 45.0,
        "Latitude(deg)": 28.58047840229335,
        "Longitude(deg)": -168.24456545664802,
        "Mean Anomaly(deg)": 137.5862254274889,
        "RAAN(deg)": 144.9937751917874,
        "Satellite Name": "Constellation 1 646",
        "Satellite Number": 646,
        "Semi-Major Axis(m)": 7083131.272910544,
        "Time(s)": 110
    },
    {
        "Altitude(m)": 704038.2269663382,
        "Argument of Periapsis(deg)": 0.006654228693240024,
        "Eccentricity": 0.0,
        "Inclination(deg)": 45.0,
        "Latitude(deg)": 28.544212293467186,
        "Longitude(deg)": -168.19318229064842,
        "Mean Anomaly(deg)": 137.6469265677388,
        "RAAN(deg)": 144.99371860262178,
        "Satellite Name": "Constellation 1 646",
        "Satellite Number": 646,
        "Semi-Major Axis(m)": 7083131.272910544,
        "Time(s)": 111
    },
    {
        "Altitude(m)": 704032.7061595331,
        "Argument of Periapsis(deg)": 0.006714176699485429,
        "Eccentricity": 0.0,
        "Inclination(deg)": 45.0,
        "Latitude(deg)": 28.507923339263975,
        "Longitude(deg)": -168.14183695062317,
        "Mean Anomaly(deg)": 137.7076277079887,
        "RAAN(deg)": 144.99366201345623,
        "Satellite Name": "Constellation 1 646",
        "Satellite Number": 646,
        "Semi-Major Axis(m)": 7083131.272910544,
        "Time(s)": 112
    },
    {
        "Altitude(m)": 704027.1912977528,
        "Argument of Periapsis(deg)": 0.006774124705730835,
        "Eccentricity": 0.0,
        "Inclination(deg)": 45.0,
        "Latitude(deg)": 28.471611589123977,
        "Longitude(deg)": -168.09052954517253,
        "Mean Anomaly(deg)": 137.76832884823858,
        "RAAN(deg)": 144.99360542429068,
        "Satellite Name": "Constellation 1 646",
        "Satellite Number": 646,
        "Semi-Major Axis(m)": 7083131.272910544,
        "Time(s)": 113
    }
]